CCSDS_OMM_VERS = 2.0
CREATION_DATE  = 
ORIGINATOR     = 

OBJECT_NAME    = ALOS (DAICHI)
OBJECT_ID      = 2006-002A
CENTER_NAME    = EARTH
REF_FRAME      = TEME
TIME_SYSTEM    = UTC
MEAN_ELEMENT_THEORY = SGP/SGP4

EPOCH          = 2026-02-07T21:19:22.522368
MEAN_MOTION    = 14.69710935
ECCENTRICITY   = .00020124
INCLINATION    = 98.1170
RA_OF_ASC_NODE = 355.0060
ARG_OF_PERICENTER = 67.3510
MEAN_ANOMALY   = 292.7908

EPHEMERIS_TYPE = 0
CLASSIFICATION_TYPE = U
NORAD_CAT_ID   = 28931
ELEMENT_SET_NO = 999
REV_AT_EPOCH   = 6910
BSTAR          = .34765025E-3
MEAN_MOTION_DOT = .2022E-4
MEAN_MOTION_DDOT = 0

CCSDS_OMM_VERS = 2.0
CREATION_DATE  = 
ORIGINATOR     = 

OBJECT_NAME    = H-2A R/B
OBJECT_ID      = 2006-002B
CENTER_NAME    = EARTH
REF_FRAME      = TEME
TIME_SYSTEM    = UTC
MEAN_ELEMENT_THEORY = SGP/SGP4

EPOCH          = 2026-02-07T21:49:10.813152
MEAN_MOTION    = 15.15820692
ECCENTRICITY   = .00528502
INCLINATION    = 98.2361
RA_OF_ASC_NODE = 183.3983
ARG_OF_PERICENTER = 343.8258
MEAN_ANOMALY   = 16.1283

EPHEMERIS_TYPE = 0
CLASSIFICATION_TYPE = U
NORAD_CAT_ID   = 28932
ELEMENT_SET_NO = 999
REV_AT_EPOCH   = 8992
BSTAR          = .4324531E-3
MEAN_MOTION_DOT = .8483E-4
MEAN_MOTION_DDOT = 0

CCSDS_OMM_VERS = 2.0
CREATION_DATE  = 
ORIGINATOR     = 

OBJECT_NAME    = RESURS-DK 1
OBJECT_ID      = 2006-021A
CENTER_NAME    = EARTH
REF_FRAME      = TEME
TIME_SYSTEM    = UTC
MEAN_ELEMENT_THEORY = SGP/SGP4

EPOCH          = 2026-02-07T21:50:31.585920
MEAN_MOTION    = 15.12569562
ECCENTRICITY   = .00047086
INCLINATION    = 69.9348
RA_OF_ASC_NODE = 314.0449
ARG_OF_PERICENTER = 206.4717
MEAN_ANOMALY   = 153.6209

EPHEMERIS_TYPE = 0
CLASSIFICATION_TYPE = U
NORAD_CAT_ID   = 29228
ELEMENT_SET_NO = 999
REV_AT_EPOCH   = 8302
BSTAR          = .20161711E-3
MEAN_MOTION_DOT = .3419E-4
MEAN_MOTION_DDOT = 0

CCSDS_OMM_VERS = 2.0
CREATION_DATE  = 
ORIGINATOR     = 

OBJECT_NAME    = CZ-4B R/B
OBJECT_ID      = 2006-046C
CENTER_NAME    = EARTH
REF_FRAME      = TEME
TIME_SYSTEM    = UTC
MEAN_ELEMENT_THEORY = SGP/SGP4

EPOCH          = 2026-02-07T15:46:53.781888
MEAN_MOTION    = 15.16579712
ECCENTRICITY   = .00338191
INCLINATION    = 97.5652
RA_OF_ASC_NODE = 83.6446
ARG_OF_PERICENTER = 14.4325
MEAN_ANOMALY   = 345.7865

EPHEMERIS_TYPE = 0
CLASSIFICATION_TYPE = U
NORAD_CAT_ID   = 29507
ELEMENT_SET_NO = 999
REV_AT_EPOCH   = 5549
BSTAR          = .33607727E-3
MEAN_MOTION_DOT = .6589E-4
MEAN_MOTION_DDOT = 0

CCSDS_OMM_VERS = 2.0
CREATION_DATE  = 
ORIGINATOR     = 

OBJECT_NAME    = CZ-2C R/B
OBJECT_ID      = 2007-010B
CENTER_NAME    = EARTH
REF_FRAME      = TEME
TIME_SYSTEM    = UTC
MEAN_ELEMENT_THEORY = SGP/SGP4

EPOCH          = 2026-02-07T22:12:36.893664
MEAN_MOTION    = 14.20235731
ECCENTRICITY   = .00593456
INCLINATION    = 98.3969
RA_OF_ASC_NODE = 153.6991
ARG_OF_PERICENTER = 21.8342
MEAN_ANOMALY   = 338.5345

EPHEMERIS_TYPE = 0
CLASSIFICATION_TYPE = U
NORAD_CAT_ID   = 31114
ELEMENT_SET_NO = 999
REV_AT_EPOCH   = 97549
BSTAR          = .86315545E-4
MEAN_MOTION_DOT = .147E-5
MEAN_MOTION_DDOT = 0

CCSDS_OMM_VERS = 2.0
CREATION_DATE  = 
ORIGINATOR     = 

OBJECT_NAME    = COSMO-SKYMED 1
OBJECT_ID      = 2007-023A
CENTER_NAME    = EARTH
REF_FRAME      = TEME
TIME_SYSTEM    = UTC
MEAN_ELEMENT_THEORY = SGP/SGP4

EPOCH          = 2026-02-07T23:24:12.166848
MEAN_MOTION    = 14.96297148
ECCENTRICITY   = .00009039
INCLINATION    = 97.8857
RA_OF_ASC_NODE = 229.7752
ARG_OF_PERICENTER = 76.1429
MEAN_ANOMALY   = 283.9892

EPHEMERIS_TYPE = 0
CLASSIFICATION_TYPE = U
NORAD_CAT_ID   = 31598
ELEMENT_SET_NO = 999
REV_AT_EPOCH   = 1046
BSTAR          = .34046595E-3
MEAN_MOTION_DOT = .3789E-4
MEAN_MOTION_DDOT = 0

CCSDS_OMM_VERS = 2.0
CREATION_DATE  = 
ORIGINATOR     = 

OBJECT_NAME    = COSMOS 2428
OBJECT_ID      = 2007-029A
CENTER_NAME    = EARTH
REF_FRAME      = TEME
TIME_SYSTEM    = UTC
MEAN_ELEMENT_THEORY = SGP/SGP4

EPOCH          = 2026-02-07T22:36:53.374752
MEAN_MOTION    = 14.12932271
ECCENTRICITY   = .00072564
INCLINATION    = 70.9396
RA_OF_ASC_NODE = 265.7880
ARG_OF_PERICENTER = 309.8329
MEAN_ANOMALY   = 50.2153

EPHEMERIS_TYPE = 0
CLASSIFICATION_TYPE = U
NORAD_CAT_ID   = 31792
ELEMENT_SET_NO = 999
REV_AT_EPOCH   = 95989
BSTAR          = .20234694E-3
MEAN_MOTION_DOT = .329E-5
MEAN_MOTION_DDOT = 0

CCSDS_OMM_VERS = 2.0
CREATION_DATE  = 
ORIGINATOR     = 

OBJECT_NAME    = SL-16 R/B
OBJECT_ID      = 2007-029B
CENTER_NAME    = EARTH
REF_FRAME      = TEME
TIME_SYSTEM    = UTC
MEAN_ELEMENT_THEORY = SGP/SGP4

EPOCH          = 2026-02-07T22:47:40.026912
MEAN_MOTION    = 14.14831161
ECCENTRICITY   = .00019233
INCLINATION    = 70.9732
RA_OF_ASC_NODE = 234.8986
ARG_OF_PERICENTER = 277.0595
MEAN_ANOMALY   = 193.2571

EPHEMERIS_TYPE = 0
CLASSIFICATION_TYPE = U
NORAD_CAT_ID   = 31793
ELEMENT_SET_NO = 999
REV_AT_EPOCH   = 96116
BSTAR          = .24403122E-3
MEAN_MOTION_DOT = .423E-5
MEAN_MOTION_DDOT = 0

CCSDS_OMM_VERS = 2.0
CREATION_DATE  = 
ORIGINATOR     = 

OBJECT_NAME    = KORONAS-FOTON
OBJECT_ID      = 2009-003A
CENTER_NAME    = EARTH
REF_FRAME      = TEME
TIME_SYSTEM    = UTC
MEAN_ELEMENT_THEORY = SGP/SGP4

EPOCH          = 2026-02-07T17:40:53.877216
MEAN_MOTION    = 15.42533662
ECCENTRICITY   = .00089113
INCLINATION    = 82.4325
RA_OF_ASC_NODE = 306.9966
ARG_OF_PERICENTER = 265.8374
MEAN_ANOMALY   = 94.1855

EPHEMERIS_TYPE = 0
CLASSIFICATION_TYPE = U
NORAD_CAT_ID   = 33504
ELEMENT_SET_NO = 999
REV_AT_EPOCH   = 94112
BSTAR          = .29417438E-3
MEAN_MOTION_DOT = .12818E-3
MEAN_MOTION_DDOT = 0

CCSDS_OMM_VERS = 2.0
CREATION_DATE  = 
ORIGINATOR     = 

OBJECT_NAME    = CZ-2C R/B
OBJECT_ID      = 2011-030B
CENTER_NAME    = EARTH
REF_FRAME      = TEME
TIME_SYSTEM    = UTC
MEAN_ELEMENT_THEORY = SGP/SGP4

EPOCH          = 2026-02-07T21:18:15.785280
MEAN_MOTION    = 14.81106365
ECCENTRICITY   = .00542414
INCLINATION    = 97.8495
RA_OF_ASC_NODE = 356.7619
ARG_OF_PERICENTER = 87.3769
MEAN_ANOMALY   = 335.6652

EPHEMERIS_TYPE = 0
CLASSIFICATION_TYPE = U
NORAD_CAT_ID   = 37731
ELEMENT_SET_NO = 999
REV_AT_EPOCH   = 78568
BSTAR          = .23108976E-3
MEAN_MOTION_DOT = .1786E-4
MEAN_MOTION_DDOT = 0

CCSDS_OMM_VERS = 2.0
CREATION_DATE  = 
ORIGINATOR     = 

OBJECT_NAME    = H-2A R/B
OBJECT_ID      = 2012-025E
CENTER_NAME    = EARTH
REF_FRAME      = TEME
TIME_SYSTEM    = UTC
MEAN_ELEMENT_THEORY = SGP/SGP4

EPOCH          = 2026-02-07T21:04:52.381920
MEAN_MOTION    = 14.94903055
ECCENTRICITY   = .00458952
INCLINATION    = 98.4680
RA_OF_ASC_NODE = 3.5580
ARG_OF_PERICENTER = 51.2133
MEAN_ANOMALY   = 309.3171

EPHEMERIS_TYPE = 0
CLASSIFICATION_TYPE = U
NORAD_CAT_ID   = 38341
ELEMENT_SET_NO = 999
REV_AT_EPOCH   = 74376
BSTAR          = .35382523E-3
MEAN_MOTION_DOT = .3872E-4
MEAN_MOTION_DDOT = 0

CCSDS_OMM_VERS = 2.0
CREATION_DATE  = 
ORIGINATOR     = 

OBJECT_NAME    = SHIJIAN-16 (SJ-16)
OBJECT_ID      = 2013-057A
CENTER_NAME    = EARTH
REF_FRAME      = TEME
TIME_SYSTEM    = UTC
MEAN_ELEMENT_THEORY = SGP/SGP4

EPOCH          = 2026-02-07T22:18:26.429184
MEAN_MOTION    = 14.92238725
ECCENTRICITY   = .00168689
INCLINATION    = 74.9704
RA_OF_ASC_NODE = 241.4236
ARG_OF_PERICENTER = 186.7568
MEAN_ANOMALY   = 173.3396

EPHEMERIS_TYPE = 0
CLASSIFICATION_TYPE = U
NORAD_CAT_ID   = 39358
ELEMENT_SET_NO = 999
REV_AT_EPOCH   = 66706
BSTAR          = .15813246E-3
MEAN_MOTION_DOT = .1588E-4
MEAN_MOTION_DDOT = 0

