ALOS (DAICHI)           
1 28931U 06002A   26038.88845512  .00002022  00000+0  34765-3 0  9994
2 28931  98.1170 355.0060 0002012  67.3510 292.7908 14.69710935 69105
H-2A R/B                
1 28932U 06002B   26038.90915293  .00008483  00000+0  43245-3 0  9992
2 28932  98.2361 183.3983 0052850 343.8258  16.1283 15.15820692 89921
RESURS-DK 1             
1 29228U 06021A   26038.91008780  .00003419  00000+0  20162-3 0  9994
2 29228  69.9348 314.0449 0004708 206.4717 153.6209 15.12569562 83026
CZ-4B R/B               
1 29507U 06046C   26038.65756692  .00006589  00000+0  33608-3 0  9994
2 29507  97.5652  83.6446 0033819  14.4325 345.7865 15.16579712 55498
CZ-2C R/B               
1 31114U 07010B   26038.92542701  .00000147  00000+0  86316-4 0  9996
2 31114  98.3969 153.6991 0059345  21.8342 338.5345 14.20235731975499
COSMO-SKYMED 1          
1 31598U 07023A   26038.97514082  .00003789  00000+0  34047-3 0  9990
2 31598  97.8857 229.7752 0000903  76.1429 283.9892 14.96297148 10460
COSMOS 2428             
1 31792U 07029A   26038.94228443  .00000329  00000+0  20235-3 0  9993
2 31792  70.9396 265.7880 0007256 309.8329  50.2153 14.12932271959896
SL-16 R/B               
1 31793U 07029B   26038.94976883  .00000423  00000+0  24403-3 0  9998
2 31793  70.9732 234.8986 0001923 277.0595 193.2571 14.14831161961164
KORONAS-FOTON           
1 33504U 09003A   26038.73673469  .00012818  00000+0  29417-3 0  9996
2 33504  82.4325 306.9966 0008911 265.8374  94.1855 15.42533662941120
CZ-2C R/B               
1 37731U 11030B   26038.88768270  .00001786  00000+0  23109-3 0  9990
2 37731  97.8495 356.7619 0054241  87.3769 335.6652 14.81106365785687
H-2A R/B                
1 38341U 12025E   26038.87838405  .00003872  00000+0  35383-3 0  9995
2 38341  98.4680   3.5580 0045895  51.2133 309.3171 14.94903055743764
SHIJIAN-16 (SJ-16)      
1 39358U 13057A   26038.92947256  .00001588  00000+0  15813-3 0  9999
2 39358  74.9704 241.4236 0016868 186.7568 173.3396 14.92238725667063
